[
  {
    "OBJECT_NAME": "HADES-R",
    "OBJECT_ID": "2025-009CK",
    "EPOCH": "2025-06-28T10:46:35.282208",
    "MEAN_MOTION": 15.30225323,
    "ECCENTRICITY": 0.000265,
    "INCLINATION": 97.4088,
    "RA_OF_ASC_NODE": 260.1946,
    "ARG_OF_PERICENTER": 60.6597,
    "MEAN_ANOMALY": 299.4908,
    "EPHEMERIS_TYPE": 0,
    "CLASSIFICATION_TYPE": "U",
    "NORAD_CAT_ID": 62690,
    "ELEMENT_SET_NO": 999,
    "REV_AT_EPOCH": 2503,
    "BSTAR": 0.00077618,
    "MEAN_MOTION_DOT": 0.00022666,
    "MEAN_MOTION_DDOT": 0
  },
  {
    "OBJECT_NAME": "HADES-ICM",
    "OBJECT_ID": "2025-052BN",
    "EPOCH": "2025-06-28T05:13:06.737376",
    "MEAN_MOTION": 15.23551766,
    "ECCENTRICITY": 0.0010137,
    "INCLINATION": 97.4295,
    "RA_OF_ASC_NODE": 73.1252,
    "ARG_OF_PERICENTER": 318.5401,
    "MEAN_ANOMALY": 41.5066,
    "EPHEMERIS_TYPE": 0,
    "CLASSIFICATION_TYPE": "U",
    "NORAD_CAT_ID": 63492,
    "ELEMENT_SET_NO": 999,
    "REV_AT_EPOCH": 1609,
    "BSTAR": 0.00065309,
    "MEAN_MOTION_DOT": 0.00015579,
    "MEAN_MOTION_DDOT": 0
  }
]