62690,HADES-R,2025,94.1,-1.0,+,97.41,Active,0,LEO,USA,Spain,Unknown,Unknown,Unknown,1 62690U 25009CK  25179.44901947  .00022666  00000+0  77618-3 0  9994,2 62690  97.4088 260.1946 0002650  60.6597 299.4908 15.30225323 25032,15.30225323,0.000265,LEO
63492,HADES-ICM,2025,94.52,-1.0,+,97.43,Active,0,LEO,USA,Spain,Unknown,Unknown,Unknown,1 63492U 25052BN  25179.21743909  .00015579  00000+0  65309-3 0  9999,2 63492  97.4295  73.1252 0010137 318.5401  41.5066 15.23551766 16095,15.23551766,0.0010137,LEO
